{
    "links": {
        "self": "http://www.neowsapp.com/rest/v1/neo/3519517?api_key=iIulBulltgU6a56xZRHN4H3l9WmuAYTsLGpBGhQ2"
    },
    "id": "3519517",
    "neo_reference_id": "3519517",
    "name": "(2010 JJ1)",
    "designation": "2010 JJ1",
    "nasa_jpl_url": "http://ssd.jpl.nasa.gov/sbdb.cgi?sstr=3519517",
    "absolute_magnitude_h": 25.4,
    "estimated_diameter": {
        "kilometers": {
            "estimated_diameter_min": 0.022108281,
            "estimated_diameter_max": 0.0494356193
        },
        "meters": {
            "estimated_diameter_min": 22.1082810359,
            "estimated_diameter_max": 49.435619262
        },
        "miles": {
            "estimated_diameter_min": 0.0137374447,
            "estimated_diameter_max": 0.0307178602
        },
        "feet": {
            "estimated_diameter_min": 72.5337327539,
            "estimated_diameter_max": 162.1903570994
        }
    },
    "is_potentially_hazardous_asteroid": false,
    "close_approach_data": [
        {
            "close_approach_date": "2010-05-11",
            "close_approach_date_full": "2010-May-11 04:29",
            "epoch_date_close_approach": 1273552140000,
            "relative_velocity": {
                "kilometers_per_second": "7.0560078491",
                "kilometers_per_hour": "25401.6282568109",
                "miles_per_hour": "15783.5839576834"
            },
            "miss_distance": {
                "astronomical": "0.0364591647",
                "lunar": "14.1826150683",
                "kilometers": "5454213.381099189",
                "miles": "3389091.0407752482"
            },
            "orbiting_body": "Earth"
        }
    ],
    "orbital_data": {
        "orbit_id": "10",
        "orbit_determination_date": "2017-04-06 08:57:39",
        "first_observation_date": "2010-05-05",
        "last_observation_date": "2010-05-13",
        "data_arc_in_days": 8,
        "observations_used": 33,
        "orbit_uncertainty": "8",
        "minimum_orbit_intersection": ".0353151",
        "jupiter_tisserand_invariant": "3.298",
        "epoch_osculation": "2455323.5",
        "eccentricity": ".5631790541137774",
        "semi_major_axis": "2.388013281802064",
        "inclination": "1.690198566410583",
        "ascending_node_longitude": "239.3095330459692",
        "orbital_period": "1347.887152430027",
        "perihelion_distance": "1.04313422054564",
        "perihelion_argument": "344.0622617629214",
        "aphelion_distance": "3.732892343058487",
        "perihelion_time": "2455322.020482114985",
        "mean_anomaly": ".395156551232912",
        "mean_motion": ".2670846734839612",
        "equinox": "J2000",
        "orbit_class": {
            "orbit_class_type": "AMO",
            "orbit_class_description": "Near-Earth asteroid orbits similar to that of 1221 Amor",
            "orbit_class_range": "1.017 AU < q (perihelion) < 1.3 AU"
        }
    },
    "is_sentry_object": false
}